[
  {
    "name": "ONEWEB-0654",
    "noradId": "55816",
    "line1": "1 55816U 23029W   26176.29344696  .00000188  00000+0  47231-3 0  9992",
    "line2": "2 55816  87.8968 288.0892 0002062  90.6793 269.4573 13.14504474160482"
  },
  {
    "name": "ONEWEB-0656",
    "noradId": "55817",
    "line1": "1 55817U 23029X   26175.55280451  .00000000  00000+0 -32855-4 0  9990",
    "line2": "2 55817  87.9197 272.9622 0002223  89.2999 270.8389 13.20773547162122"
  },
  {
    "name": "ONEWEB-0657",
    "noradId": "55818",
    "line1": "1 55818U 23029Y   26175.65466952  .00000005  00000+0 -19105-4 0  9992",
    "line2": "2 55818  87.9174 303.4865 0002596  97.8885 262.2543 13.19725691159891"
  },
  {
    "name": "ONEWEB-0658",
    "noradId": "55819",
    "line1": "1 55819U 23029Z   26176.10483147  .00000066  00000+0  13137-3 0  9993",
    "line2": "2 55819  87.9187 303.3732 0001870 112.6060 247.5271 13.19724881159965"
  },
  {
    "name": "ONEWEB-0660",
    "noradId": "55820",
    "line1": "1 55820U 23029AA  26176.34736671 -.00000171  00000+0 -49657-3 0  9999",
    "line2": "2 55820  87.8977 288.0724 0001635 103.3160 256.8153 13.14503760160476"
  },
  {
    "name": "ONEWEB-0661",
    "noradId": "55821",
    "line1": "1 55821U 23029AB  26176.53450542  .00000255  00000+0  65343-3 0  9992",
    "line2": "2 55821  87.8963 288.0786 0001640  98.6821 261.4495 13.14503641160486"
  },
  {
    "name": "ONEWEB-0662",
    "noradId": "55822",
    "line1": "1 55822U 23029AC  26176.56938717 -.00000133  00000+0 -39198-3 0  9997",
    "line2": "2 55822  87.8958 288.0775 0001631 103.5863 256.5449 13.14503957160531"
  },
  {
    "name": "ONEWEB-0663",
    "noradId": "55823",
    "line1": "1 55823U 23029AD  26176.49498151  .00000005  00000+0 -19680-4 0  9995",
    "line2": "2 55823  87.9201 272.8460 0001707 111.1441 248.9875 13.20870153162247"
  },
  {
    "name": "ONEWEB-0664",
    "noradId": "55824",
    "line1": "1 55824U 23029AE  26176.29692099  .00000158  00000+0  35692-3 0  9999",
    "line2": "2 55824  87.9185 272.8657 0001693  89.9757 270.1570 13.20771002162212"
  },
  {
    "name": "ONEWEB-0665",
    "noradId": "55825",
    "line1": "1 55825U 23029AF  26176.37909687  .00000181  00000+0  45338-3 0  9997",
    "line2": "2 55825  87.8962 288.0905 0001661 106.4476 253.6837 13.14503639160489"
  },
  {
    "name": "ONEWEB-0666",
    "noradId": "55826",
    "line1": "1 55826U 23029AG  26176.51745221  .00000089  00000+0  18754-3 0  9995",
    "line2": "2 55826  87.9186 272.8117 0002733  98.1485 261.9958 13.20772322162250"
  },
  {
    "name": "ONEWEB-0667",
    "noradId": "55827",
    "line1": "1 55827U 23029AH  26176.51240469  .00000052  00000+0  96449-4 0  9998",
    "line2": "2 55827  87.9203 272.7721 0001837 100.2988 259.8352 13.20772284162248"
  },
  {
    "name": "ONEWEB-0669",
    "noradId": "55828",
    "line1": "1 55828U 23029AJ  26176.50734847  .00000011  00000+0 -56157-5 0  9995",
    "line2": "2 55828  87.9193 272.7836 0002055  83.9253 276.2115 13.20772902162246"
  },
  {
    "name": "ONEWEB-0670",
    "noradId": "55829",
    "line1": "1 55829U 23029AK  26176.35687698 -.00000032  00000+0 -12152-3 0  9999",
    "line2": "2 55829  87.8957 288.1122 0001594  94.8350 265.2962 13.14501698160509"
  },
  {
    "name": "ONEWEB-0671",
    "noradId": "55830",
    "line1": "1 55830U 23029AL  26176.40335057  .00000031  00000+0  46337-4 0  9996",
    "line2": "2 55830  87.9178 303.3389 0001711 100.6986 259.4340 13.19724929159988"
  },
  {
    "name": "ONEWEB-0672",
    "noradId": "55831",
    "line1": "1 55831U 23029AM  26176.27501954  .00000045  00000+0  77687-4 0  9990",
    "line2": "2 55831  87.9197 272.8232 0002252  96.0366 264.1024 13.20772913162218"
  },
  {
    "name": "ONEWEB-0673",
    "noradId": "55832",
    "line1": "1 55832U 23029AN  26176.38043294 -.00000272  00000+0 -71249-3 0  9992",
    "line2": "2 55832  87.9183 303.3354 0001795  99.2211 260.9124 13.19725273159984"
  },
  {
    "name": "ONEWEB-0674",
    "noradId": "55833",
    "line1": "1 55833U 23029AP  26176.55351488 -.00000075  00000+0 -23663-3 0  9997",
    "line2": "2 55833  87.8960 288.0496 0001622  92.4507 267.6808 13.14504538160513"
  },
  {
    "name": "ONEWEB-0675",
    "noradId": "55834",
    "line1": "1 55834U 23029AQ  26175.63729496 -.00000001  00000+0 -34812-4 0  9992",
    "line2": "2 55834  87.9178 303.4929 0002197 102.1892 257.9487 13.19724919159901"
  },
  {
    "name": "ONEWEB-0720",
    "noradId": "55835",
    "line1": "1 55835U 23029AR  26176.38755958  .00000118  00000+0  26348-3 0  9999",
    "line2": "2 55835  87.9177 303.3435 0001757 108.2199 251.9125 13.19725042159923"
  },
  {
    "name": "ONEWEB-0537",
    "noradId": "56046",
    "line1": "1 56046U 23043A   26176.55426322 -.00000045  00000+0 -15059-3 0  9997",
    "line2": "2 56046  87.9090 227.1103 0002295  95.5113 264.6280 13.16594965160064"
  },
  {
    "name": "ONEWEB-0538",
    "noradId": "56047",
    "line1": "1 56047U 23043B   26176.54792772  .00000028  00000+0  40325-4 0  9996",
    "line2": "2 56047  87.9093 227.1141 0002224 102.3161 257.8219 13.16595363160072"
  },
  {
    "name": "ONEWEB-0546",
    "noradId": "56048",
    "line1": "1 56048U 23043C   26176.53526198  .00000086  00000+0  19246-3 0  9994",
    "line2": "2 56048  87.9094 227.1163 0002700  89.6202 270.5238 13.16595273160062"
  },
  {
    "name": "ONEWEB-0547",
    "noradId": "56049",
    "line1": "1 56049U 23043D   26176.42333908  .00000019  00000+0  13729-4 0  9995",
    "line2": "2 56049  87.9252 242.3359 0002049 103.4944 256.6418 13.21826241159318"
  },
  {
    "name": "ONEWEB-0548",
    "noradId": "56050",
    "line1": "1 56050U 23043E   26176.55979468 -.00000072  00000+0 -22199-3 0  9999",
    "line2": "2 56050  87.9088 227.1077 0001833  84.5904 275.5436 13.16593226160062"
  },
  {
    "name": "ONEWEB-0549",
    "noradId": "56051",
    "line1": "1 56051U 23043F   26176.41745539  .00000121  00000+0  26208-3 0  9993",
    "line2": "2 56051  87.9247 242.3431 0002252 106.7509 253.3873 13.21826504159316"
  },
  {
    "name": "ONEWEB-0550",
    "noradId": "56052",
    "line1": "1 56052U 23043G   26176.55540126  .00000015  00000+0  55122-5 0  9995",
    "line2": "2 56052  87.9250 242.3133 0001895  95.1638 264.9713 13.21825945159337"
  },
  {
    "name": "ONEWEB-0551",
    "noradId": "56053",
    "line1": "1 56053U 23043H   26176.52152926  .00000099  00000+0  22903-3 0  9991",
    "line2": "2 56053  87.9001 257.5660 0002101 110.0205 250.1152 13.15549601157497"
  },
  {
    "name": "ONEWEB-0552",
    "noradId": "56054",
    "line1": "1 56054U 23043J   26176.55032647  .00000100  00000+0  21011-3 0  9994",
    "line2": "2 56054  87.9247 242.3196 0001824 102.5694 257.5644 13.21825653159338"
  },
  {
    "name": "ONEWEB-0553",
    "noradId": "56055",
    "line1": "1 56055U 23043K   26176.54159342  .00000012  00000+0 -10040-5 0  9991",
    "line2": "2 56055  87.9092 227.1155 0002359  89.2924 270.8478 13.16595301160078"
  },
  {
    "name": "ONEWEB-0554",
    "noradId": "56056",
    "line1": "1 56056U 23043L   26176.52893518  .00000108  00000+0  24963-3 0  9992",
    "line2": "2 56056  87.9091 227.1268 0001779  82.8748 277.2586 13.16595797160059"
  },
  {
    "name": "ONEWEB-0555",
    "noradId": "56057",
    "line1": "1 56057U 23043M   26176.41491962  .00000058  00000+0  11700-3 0  9997",
    "line2": "2 56057  87.9092 227.1381 0002585  89.0452 271.0975 13.16592829160040"
  },
  {
    "name": "ONEWEB-0557",
    "noradId": "56058",
    "line1": "1 56058U 23043N   26176.50517587  .00000126  00000+0  29700-3 0  9995",
    "line2": "2 56058  87.9089 227.1298 0002330  63.7391 296.3979 13.16595087160057"
  },
  {
    "name": "ONEWEB-0558",
    "noradId": "56059",
    "line1": "1 56059U 23043P   26176.46790292  .00000118  00000+0  25321-3 0  9993",
    "line2": "2 56059  87.9252 242.3312 0002260 104.7718 255.3667 13.21824714159333"
  },
  {
    "name": "ONEWEB-0559",
    "noradId": "56060",
    "line1": "1 56060U 23043Q   26176.45612611  .00000039  00000+0  64014-4 0  9997",
    "line2": "2 56060  87.9251 242.3287 0002032 105.0608 255.0751 13.21826170159344"
  },
  {
    "name": "ONEWEB-0566",
    "noradId": "56061",
    "line1": "1 56061U 23043R   26176.44940591  .00000076  00000+0  15148-3 0  9992",
    "line2": "2 56061  87.9250 242.3280 0002046 108.0817 252.0540 13.21827756159329"
  },
  {
    "name": "ONEWEB-0568",
    "noradId": "56062",
    "line1": "1 56062U 23043S   26176.52259875  .00000197  00000+0  48151-3 0  9994",
    "line2": "2 56062  87.9092 227.1161 0002312  91.7829 268.3567 13.16595512160079"
  },
  {
    "name": "ONEWEB-0574",
    "noradId": "56063",
    "line1": "1 56063U 23043T   26176.44268700  .00000139  00000+0  30504-3 0  9992",
    "line2": "2 56063  87.9258 242.3331 0002025  92.9014 267.2352 13.21825375159361"
  },
  {
    "name": "ONEWEB-0575",
    "noradId": "56064",
    "line1": "1 56064U 23043U   26176.51626947  .00000097  00000+0  21978-3 0  9990",
    "line2": "2 56064  87.9092 227.1137 0002103  84.4755 275.6616 13.16594988160060"
  },
  {
    "name": "ONEWEB-0576",
    "noradId": "56065",
    "line1": "1 56065U 23043V   26176.49726391 -.00000030  00000+0 -11124-3 0  9993",
    "line2": "2 56065  87.9092 227.1256 0002123  90.6402 269.4973 13.16594184160057"
  },
  {
    "name": "ONEWEB-0577",
    "noradId": "56066",
    "line1": "1 56066U 23043W   26176.50360601  .00000095  00000+0  21451-3 0  9997",
    "line2": "2 56066  87.9092 227.1218 0001914  73.9226 286.2115 13.16594024160082"
  },
  {
    "name": "ONEWEB-0578",
    "noradId": "56067",
    "line1": "1 56067U 23043X   26176.42923331  .00000083  00000+0  16977-3 0  9998",
    "line2": "2 56067  87.9250 242.3329 0002320  93.1986 266.9413 13.21826044159327"
  },
  {
    "name": "ONEWEB-0579",
    "noradId": "56068",
    "line1": "1 56068U 23043Y   26176.42082167  .00000069  00000+0  13564-3 0  9995",
    "line2": "2 56068  87.9258 242.3320 0001869 103.5671 256.5672 13.21827255159339"
  }
]